IRIDIUM 57 [-]          
1 25273U 98019B   23278.59865196  .00000907  00000+0  31231-3 0  9995
2 25273  86.3979  45.1118 0002124  91.9423 268.2016 14.34922809335761
IRIDIUM 63 [-]          
1 25286U 98021B   23278.57588842  .00000796  00000+0  27058-3 0  9998
2 25286  86.4023 342.0955 0002369  95.1760 264.9706 14.35431807334789
IRIDIUM 69 [-]          
1 25319U 98026A   23278.48505973  .00001216  00000+0  38335-3 0  9992
2 25319  86.4041 357.2484 0000162 191.6375 168.4820 14.39598360333724
IRIDIUM 71 [-]          
1 25320U 98026B   23278.61207232  .00001005  00000+0  31353-3 0  9995
2 25320  86.4031 352.0314 0002179  34.9526 325.1815 14.39934399334258
IRIDIUM 73 [-]          
1 25344U 98032C   23278.60384616  .00000974  00000+0  24613-3 0  9994
2 25344  86.4392 309.8893 0001671  86.1676 273.9720 14.50049930340889
IRIDIUM 82 [-]          
1 25467U 98051A   23278.84925569  .00019476  00000+0  11430-2 0  9994
2 25467  86.3971  45.7859 0148838  73.7086 288.0459 15.02649915330050
IRIDIUM 2 [-]           
1 25527U 98066A   23278.78066444  .00051046  00000+0  12282-2 0  9993
2 25527  85.5159 104.2497 0003969 217.3303 142.7674 15.41082730367670
